00627    9.95  0.15 K051U 122.56843  175.06583  142.68177    6.47201  0.0633440  0.19972188   2.8985822    MPC 22666   117  22 1907-1991 0.88 M-c 08  Goffin     0000   (627) Charis              19910 0
00628    9.25  0.15 K051U  48.40553  206.27094  112.19299   11.52691  0.0445529  0.23760170   2.5816836  0 E2005-H34   678  42 1907-2004 0.54 M-v 38h Goffin     0000   (628) Christine           20041213
00629    9.9   0.15 K051U 272.48812   30.58615   87.37430    9.32553  0.1599872  0.17761923   3.1343157  0 E2005-H34   443  30 1907-2004 0.54 M-v 38h Goffin     0000   (629) Bernardina          20041224
00630   11.0   0.15 K051U  18.99341   40.66331  105.60346   13.84406  0.1134114  0.23188875   2.6239140    MPC 22666    91  20 1907-1990 0.93 M-c 08  Goffin     0000   (630) Euphemia            19900 0
00631    8.70  0.15 K051U  48.48137  279.68592  224.78834   18.92553  0.0853519  0.21119280   2.7926508  0 MPO  4876   202  35 1907-2000 0.52 M-v 38h Goffin     0000   (631) Philippina          20000507
00632   11.6   0.15 K051U 160.85951  252.75064  356.71218    2.21617  0.1934044  0.22697156   2.6616753  0 E2005-H34   740  31 1907-2005 0.53 M-v 38h Goffin     0000   (632) Pyrrha              20050204
00633    9.73  0.15 K051U 147.83402  185.95213  147.61354   10.91967  0.0892857  0.18823873   3.0152967  0 E2005-H34   620  34 1907-2005 0.53 M-v 38h Goffin     0000   (633) Zelima              20050313
00634    9.6   0.15 K051U  36.20009  221.36020  133.51206   12.28982  0.1880534  0.18563891   3.0433837  0 E2005-H34   650  38 1907-2005 0.54 M-v 38h Goffin     0000   (634) Ute                 20050113
00635    9.01  0.15 K051U  62.83120  218.76320  183.47860   11.04692  0.0798600  0.17712768   3.1401117  0 E2005-H34   598  45 1906-2005 0.54 M-v 38h Goffin     0000   (635) Vundtia             20050316
00636    9.5   0.15 K051U  68.06933  298.11691   34.80041    7.93330  0.1750027  0.19872944   2.9082243  0 E2005-H34   649  37 1907-2005 0.54 M-v 38h Goffin     0000   (636) Erika               20050309
00637   11.0   0.15 K051U 150.96195  169.50681  355.43706    0.28648  0.1355994  0.17520051   3.1630968  0 MPO  6175   181  26 1907-2000 0.53 M-v 38h Goffin     0000   (637) Chrysothemis        20000806
00638    9.8   0.15 K051U 218.48523  129.05918  103.27625    7.71582  0.1628326  0.21818517   2.7326619  0 E2005-H34   728  42 1893-2005 0.53 M-v 38h Goffin     0000   (638) Moira               20050303
00639    8.20  0.15 K051U 189.26508   66.09701  280.37258    8.56217  0.1034252  0.18771434   3.0209097  0 E2005-G62   577  54 1907-2005 0.54 M-v 38h Goffin     0000   (639) Latona              20050317
00640    8.99  0.15 K051U 174.68552   34.95965  235.06996   13.38902  0.0808499  0.17563296   3.1579024  0 E2005-H34   608  35 1907-2005 0.54 M-v 38h Goffin     0000   (640) Brambilla           20050316
00641   12.1   0.15 K051U 104.48952   17.86939   41.08412    1.71356  0.1281847  0.29787387   2.2204846  0 MPO 53552   306  27 1907-2003 0.55 M-v 38h Goffin     0000   (641) Agnes               20030903
00642    9.98  0.15 K051U 308.13648  111.87575    6.79560    8.14102  0.1190419  0.17244045   3.1967594  0 E2005-H34   546  34 1907-2005 0.54 M-v 38h Goffin     0000   (642) Clara               20050311
00643    9.72  0.15 K051U 204.63896  236.22812  252.39410   13.76390  0.0650969  0.16024456   3.3569679  0 E2005-H34   481  31 1907-2004 0.54 M-v 38h Goffin     0000   (643) Scheherezade        20041105
00644   11.13  0.15 K051U  90.39210  268.33317  109.92780    1.04064  0.1558785  0.23527071   2.5987080  0 E2005-H34   882  38 1907-2005 0.53 M-v 38h Goffin     0000   (644) Cosima              20050304
00645    9.94  0.15 K051U 324.93021   81.94093    0.74632    7.02607  0.1565334  0.17183851   3.2042204  0 E2005-H34   546  39 1907-2005 0.54 M-v 38h Goffin     0000   (645) Agrippina           20050204
00646   12.5   0.15 K051U 179.44578   37.36335  303.06177    6.91664  0.2134427  0.27800630   2.3250535  0 E2005-H34   584  17 1907-2005 0.53 M-v 38h Goffin     0000   (646) Kastalia            20050317
00647   11.41  0.15 K051U 129.20066  175.94149  254.89470    7.32475  0.1941388  0.25824059   2.4422290  0 E2005-H34   556  23 1907-2005 0.53 M-v 38h Goffin     0000   (647) Adelgunde           20050308
00648    9.68  0.15 K051U 334.65188  172.96000  291.73620    9.77169  0.1914880  0.17095218   3.2152861  0 E2005-H34   514  34 1907-2005 0.53 M-v 38h Goffin     0000   (648) Pippa               20050310
00649   12.4   0.15 K051U 336.41581  349.00451  357.21435   12.68573  0.2769809  0.24245855   2.5470905  0 E2005-H34   311  17 1907-2004 0.54 M-v 38h Goffin     0000   (649) Josefa              20040906
00650   12.93  0.15 K051U  91.36018  177.84502  215.64941    2.55196  0.1833563  0.25567746   2.4585238  0 MPO 53552   418  21 1907-2003 0.54 M-v 38h Goffin     0000   (650) Amalasuntha         20030606
00651   10.01  0.15 K051U 184.62219  355.62536   38.21261   10.76721  0.0953656  0.18722615   3.0261588  0 E2005-H34   453  34 1905-2005 0.54 M-v 38h Goffin     0000   (651) Antikleia           20050311
00652   11.4   0.15 K051U 330.54330  276.80474   86.33793   15.76369  0.1269241  0.24139835   2.5545428  0 MPO  6175   112  19 1907-2000 0.54 M-v 38h Goffin     0000   (652) Jubilatrix          20000802
00653    9.18  0.15 K051U  91.49985   49.50377  133.23985   11.28767  0.0453048  0.18847955   3.0127278  0 E2005-H34   601  38 1893-2004 0.54 M-v 38h Goffin     0000   (653) Berenike            20040905
00654    8.52  0.15 K051U 302.50111  214.04096  278.59719   18.11738  0.2315554  0.28315532   2.2967809    MPC 24086   321  42 1908-1993 0.91 M-c 08  Goffin     0000   (654) Zelinda             19930 0
00655    9.6   0.15 K051U 285.11819  280.53560  130.19879    6.50507  0.0913878  0.19086423   2.9875810  0 MPC 32295    96  32 1907-1998 0.56 M-v 38h Goffin     0000   (655) Briseis             19980525
00656   10.0   0.15 K051U  72.46713  332.47145  184.53285    0.51400  0.1367219  0.17654475   3.1470201  0 E2005-H34   863  45 1908-2004 0.53 M-v 38h Goffin     0000   (656) Beagle              20040719
00657   10.93  0.15 K051U 305.53515  245.35940  297.81872   10.21949  0.1150311  0.23375984   2.6098934  0 E2005-H34   630  40 1908-2005 0.53 M-v 38h Goffin     0000   (657) Gunlod              20050313
00658   10.54  0.15 K051U 102.09086   60.01174  351.41577    1.51156  0.0607014  0.20426595   2.8554336  0 E2005-H34   727  47 1906-2005 0.53 M-v 38h Goffin     0000   (658) Asteria             20050317
00659    8.99  0.15 K051U 269.16803  340.35437  350.96547    4.52034  0.1161188  0.08307082   5.2020005  0 E2005-H34   652  48 1908-2004 0.54 M-v 38h Goffin     0009   (659) Nestor              20040720
00660    9.14  0.15 K051U 239.93130  105.16411  157.18244   15.22117  0.1070711  0.24446532   2.5331323  0 E2005-H34   643  51 1908-2005 0.54 M-v 38h Goffin     0000   (660) Crescentia          20050323
00661    9.63  0.15 K051U 190.31683  169.51761  336.03229    9.25909  0.0369711  0.18814953   3.0162497  0 MPC 35405   125  33 1908-1998 0.55 M-v 38h Goffin     0000   (661) Cloelia             19980624
00662   10.5   0.15 K051U 190.91911  165.47196  133.93733    4.11662  0.2148033  0.24147764   2.5539836  0 E2005-H34   821  36 1908-2005 0.53 M-v 38h Goffin     0000   (662) Newtonia            20050308
00663    9.21  0.15 K051U  84.90634  310.39447  233.04035   17.85140  0.1538998  0.18412213   3.0600749  0 E2005-H34   592  35 1908-2004 0.54 M-v 38h Goffin     0000   (663) Gerlinde            20040630
00664    9.97  0.15 K051U  31.50465   97.09611  172.86745    8.59558  0.2186174  0.17154965   3.2078163  0 E2005-H34   534  32 1908-2004 0.54 M-v 38h Goffin     0000   (664) Judith              20040808
00665    8.1   0.15 K051U 127.05626  319.93304  298.58637   14.74487  0.1669247  0.17634380   3.1494103  0 E2005-H34   549  43 1906-2005 0.55 M-v 38h Goffin     0000   (665) Sabine              20050117
00666   10.9   0.15 K051U 351.83705  173.93269  215.65028    7.59200  0.2390192  0.23609771   2.5926359  0 E2005-H34   757  29 1908-2004 0.53 M-v 38h Goffin     0000   (666) Desdemona           20041220
00667    8.9   0.15 K051U 195.28845  306.79162  153.35422   25.41002  0.1925847  0.17374043   3.1807933  0 MPC 32506   114  24 1908-1998 0.55 M-v 38h Goffin     0000   (667) Denise              19980628
00668   11.8   0.15 K051U 218.10968  112.91571  214.65207    6.83361  0.2326930  0.21047156   2.7990271  0 E2005-H34   547  18 1908-2005 0.53 M-v 38h Goffin     0000   (668) Dora                20050318
00669   10.24  0.15 K051U 205.35104  115.14178  170.95470   10.79292  0.0831966  0.18884171   3.0088746  0 E2005-H34   576  31 1906-2005 0.53 M-v 38h Goffin     0000   (669) Kypria              20050312
00670    9.8   0.15 K051U 172.57003  194.71113  174.87900    7.53929  0.1910495  0.20940208   2.8085494  0 E2005-H34   667  43 1907-2005 0.54 M-v 38h Goffin     0000   (670) Ottegebe            20050315
00671   10.0   0.15 K051U 163.32108   95.71801    0.76733    8.03636  0.0681010  0.18137294   3.0909197  0 MPO  3854   165  26 1908-2000 0.54 M-v 38h Goffin     0000   (671) Carnegia            20000723
00672   11.1   0.15 K051U 266.01149  309.02001  344.04252   11.13593  0.1340561  0.24097730   2.5575176  0 E2005-H34   473  28 1907-2005 0.53 M-v 38h Goffin     0000   (672) Astarte             20050312
00673   10.20  0.15 K051U  21.72633  257.02096  226.94147    2.87513  0.0090744  0.20873003   2.8145746  0 MPO 50329   617  43 1908-2002 0.55 M-v 38h Goffin     0000   (673) Edda                20021130
00674    7.42  0.15 K051U  39.04888   42.30580   58.27558   13.49689  0.1902377  0.19684361   2.9267693  0 MPC 31778   350  49 1901-1997 0.56 M-v 38h Goffin     0000   (674) Rachele             19970916
00675    7.91  0.15 K051U 281.31717  152.03009  263.43932    9.80161  0.2043804  0.21403024   2.7679142  0 MPO 12096   320  43 1908-2000 0.53 M-v 38h Goffin     0000   (675) Ludmilla            20001223
